STARLINK-3231           
1 49744U 21115W   26068.49575278 -.00002981  00000+0 -16926-3 0  9995
2 49744  53.2174 149.8860 0001392  84.1838 275.9313 15.08847702235502
STARLINK-6085           
1 57115U 23090Q   26068.53746065  .00027564  00000+0  15302-2 0  9997
2 57115  42.9983 264.1938 0019382 205.4773 154.5119 15.13089153150525
